SL-14 R/B               
1 16792U 86046B   26048.19655892  .00000473  00000+0  51723-4 0  9999
2 16792  82.4799  99.5498 0021648 297.4503  62.4512 14.85570033123362
SL-14 R/B               
1 16882U 86055B   26048.25436825  .00000527  00000+0  57854-4 0  9990
2 16882  82.5230 145.8766 0019902  43.4828 346.6304 14.85621652116334
AJISAI (EGS)            
1 16908U 86061A   26048.31086890 -.00000107  00000+0 -71484-4 0  9997
2 16908  50.0083 156.0127 0011230 234.4933 164.9811 12.44515292465469
COSMOS 1812             
1 17295U 87003A   26048.25664212  .00399939  67459-4  74364-3 0  9994
2 17295  82.4750 218.9175 0002862 301.1369  58.9628 16.01043065141196
SL-14 R/B               
1 17567U 87024B   26048.23744101  .00000485  00000+0  52531-4 0  9995
2 17567  82.5275 111.9882 0017403 332.9717  27.0592 14.86112365 85098
COSMOS 1833             
1 17589U 87027A   26048.26052132 -.00000045  00000+0  17742-5 0  9990
2 17589  70.9227   8.9517 0024862 242.3389 117.5209 14.13057383  7436
SL-16 R/B               
1 17590U 87027B   26048.15220202  .00000194  00000+0  11993-3 0  9999
2 17590  71.0042 319.7724 0004575 179.2491 180.8640 14.17163565 12431
SL-14 R/B               
1 17912U 87038B   26048.22187219  .00000523  00000+0  57944-4 0  9990
2 17912  82.5037 316.0860 0017952 229.5465 130.4187 14.85349720 76198
COSMOS 1844             
1 17973U 87041A   26048.24663923  .00000364  00000+0  21403-3 0  9997
2 17973  70.8980  77.2968 0029040  50.5215 309.8468 14.14548742   696
SL-14 R/B               
1 18153U 87055B   26048.26975699  .00000583  00000+0  64305-4 0  9993
2 18153  82.5010   8.2721 0022330  81.5612 278.8134 14.85603099 66908
COSMOS 1867             
1 18187U 87060A   26048.25125628 -.00000038  00000+0  23505-4 0  9997
2 18187  65.0122   3.9400 0014172 277.4997  82.4477 14.31499693 17019
SL-14 R/B               
1 18749U 88001B   26047.92683583  .00000587  00000+0  65098-4 0  9990
2 18749  82.5116 214.8874 0016882 310.2989  49.6750 14.85501686 38944
