CCSDS_OMM_VERS = 2.0
CREATION_DATE  = 
ORIGINATOR     = 

OBJECT_NAME    = SL-14 R/B
OBJECT_ID      = 1986-046B
CENTER_NAME    = EARTH
REF_FRAME      = TEME
TIME_SYSTEM    = UTC
MEAN_ELEMENT_THEORY = SGP/SGP4

EPOCH          = 2026-02-17T04:43:02.690688
MEAN_MOTION    = 14.85570033
ECCENTRICITY   = .00216483
INCLINATION    = 82.4799
RA_OF_ASC_NODE = 99.5498
ARG_OF_PERICENTER = 297.4503
MEAN_ANOMALY   = 62.4512

EPHEMERIS_TYPE = 0
CLASSIFICATION_TYPE = U
NORAD_CAT_ID   = 16792
ELEMENT_SET_NO = 999
REV_AT_EPOCH   = 12336
BSTAR          = .51722859E-4
MEAN_MOTION_DOT = .473E-5
MEAN_MOTION_DDOT = 0

CCSDS_OMM_VERS = 2.0
CREATION_DATE  = 
ORIGINATOR     = 

OBJECT_NAME    = SL-14 R/B
OBJECT_ID      = 1986-055B
CENTER_NAME    = EARTH
REF_FRAME      = TEME
TIME_SYSTEM    = UTC
MEAN_ELEMENT_THEORY = SGP/SGP4

EPOCH          = 2026-02-17T06:06:17.416800
MEAN_MOTION    = 14.85621652
ECCENTRICITY   = .00199022
INCLINATION    = 82.5230
RA_OF_ASC_NODE = 145.8766
ARG_OF_PERICENTER = 43.4828
MEAN_ANOMALY   = 346.6304

EPHEMERIS_TYPE = 0
CLASSIFICATION_TYPE = U
NORAD_CAT_ID   = 16882
ELEMENT_SET_NO = 999
REV_AT_EPOCH   = 11633
BSTAR          = .57854348E-4
MEAN_MOTION_DOT = .527E-5
MEAN_MOTION_DDOT = 0

CCSDS_OMM_VERS = 2.0
CREATION_DATE  = 
ORIGINATOR     = 

OBJECT_NAME    = AJISAI (EGS)
OBJECT_ID      = 1986-061A
CENTER_NAME    = EARTH
REF_FRAME      = TEME
TIME_SYSTEM    = UTC
MEAN_ELEMENT_THEORY = SGP/SGP4

EPOCH          = 2026-02-17T07:27:39.072960
MEAN_MOTION    = 12.44515292
ECCENTRICITY   = .001123
INCLINATION    = 50.0083
RA_OF_ASC_NODE = 156.0127
ARG_OF_PERICENTER = 234.4933
MEAN_ANOMALY   = 164.9811

EPHEMERIS_TYPE = 0
CLASSIFICATION_TYPE = U
NORAD_CAT_ID   = 16908
ELEMENT_SET_NO = 999
REV_AT_EPOCH   = 46546
BSTAR          = -.71484018E-4
MEAN_MOTION_DOT = -.107E-5
MEAN_MOTION_DDOT = 0

CCSDS_OMM_VERS = 2.0
CREATION_DATE  = 
ORIGINATOR     = 

OBJECT_NAME    = COSMOS 1812
OBJECT_ID      = 1987-003A
CENTER_NAME    = EARTH
REF_FRAME      = TEME
TIME_SYSTEM    = UTC
MEAN_ELEMENT_THEORY = SGP/SGP4

EPOCH          = 2026-02-17T06:09:33.879168
MEAN_MOTION    = 16.01043065
ECCENTRICITY   = .0002862
INCLINATION    = 82.4750
RA_OF_ASC_NODE = 218.9175
ARG_OF_PERICENTER = 301.1369
MEAN_ANOMALY   = 58.9628

EPHEMERIS_TYPE = 0
CLASSIFICATION_TYPE = U
NORAD_CAT_ID   = 17295
ELEMENT_SET_NO = 999
REV_AT_EPOCH   = 14119
BSTAR          = .74364495E-3
MEAN_MOTION_DOT = .399939E-2
MEAN_MOTION_DDOT = .67458605E-4

CCSDS_OMM_VERS = 2.0
CREATION_DATE  = 
ORIGINATOR     = 

OBJECT_NAME    = SL-14 R/B
OBJECT_ID      = 1987-024B
CENTER_NAME    = EARTH
REF_FRAME      = TEME
TIME_SYSTEM    = UTC
MEAN_ELEMENT_THEORY = SGP/SGP4

EPOCH          = 2026-02-17T05:41:54.903264
MEAN_MOTION    = 14.86112365
ECCENTRICITY   = .00174032
INCLINATION    = 82.5275
RA_OF_ASC_NODE = 111.9882
ARG_OF_PERICENTER = 332.9717
MEAN_ANOMALY   = 27.0592

EPHEMERIS_TYPE = 0
CLASSIFICATION_TYPE = U
NORAD_CAT_ID   = 17567
ELEMENT_SET_NO = 999
REV_AT_EPOCH   = 8509
BSTAR          = .52531132E-4
MEAN_MOTION_DOT = .485E-5
MEAN_MOTION_DDOT = 0

CCSDS_OMM_VERS = 2.0
CREATION_DATE  = 
ORIGINATOR     = 

OBJECT_NAME    = COSMOS 1833
OBJECT_ID      = 1987-027A
CENTER_NAME    = EARTH
REF_FRAME      = TEME
TIME_SYSTEM    = UTC
MEAN_ELEMENT_THEORY = SGP/SGP4

EPOCH          = 2026-02-17T06:15:09.042048
MEAN_MOTION    = 14.13057383
ECCENTRICITY   = .00248626
INCLINATION    = 70.9227
RA_OF_ASC_NODE = 8.9517
ARG_OF_PERICENTER = 242.3389
MEAN_ANOMALY   = 117.5209

EPHEMERIS_TYPE = 0
CLASSIFICATION_TYPE = U
NORAD_CAT_ID   = 17589
ELEMENT_SET_NO = 999
REV_AT_EPOCH   = 743
BSTAR          = .1774202E-5
MEAN_MOTION_DOT = -.45E-6
MEAN_MOTION_DDOT = 0

CCSDS_OMM_VERS = 2.0
CREATION_DATE  = 
ORIGINATOR     = 

OBJECT_NAME    = SL-16 R/B
OBJECT_ID      = 1987-027B
CENTER_NAME    = EARTH
REF_FRAME      = TEME
TIME_SYSTEM    = UTC
MEAN_ELEMENT_THEORY = SGP/SGP4

EPOCH          = 2026-02-17T03:39:10.254528
MEAN_MOTION    = 14.17163565
ECCENTRICITY   = .00045753
INCLINATION    = 71.0042
RA_OF_ASC_NODE = 319.7724
ARG_OF_PERICENTER = 179.2491
MEAN_ANOMALY   = 180.8640

EPHEMERIS_TYPE = 0
CLASSIFICATION_TYPE = U
NORAD_CAT_ID   = 17590
ELEMENT_SET_NO = 999
REV_AT_EPOCH   = 1243
BSTAR          = .11992963E-3
MEAN_MOTION_DOT = .194E-5
MEAN_MOTION_DDOT = 0

CCSDS_OMM_VERS = 2.0
CREATION_DATE  = 
ORIGINATOR     = 

OBJECT_NAME    = SL-14 R/B
OBJECT_ID      = 1987-038B
CENTER_NAME    = EARTH
REF_FRAME      = TEME
TIME_SYSTEM    = UTC
MEAN_ELEMENT_THEORY = SGP/SGP4

EPOCH          = 2026-02-17T05:19:29.757216
MEAN_MOTION    = 14.85349720
ECCENTRICITY   = .00179529
INCLINATION    = 82.5037
RA_OF_ASC_NODE = 316.0860
ARG_OF_PERICENTER = 229.5465
MEAN_ANOMALY   = 130.4187

EPHEMERIS_TYPE = 0
CLASSIFICATION_TYPE = U
NORAD_CAT_ID   = 17912
ELEMENT_SET_NO = 999
REV_AT_EPOCH   = 7619
BSTAR          = .57944176E-4
MEAN_MOTION_DOT = .523E-5
MEAN_MOTION_DDOT = 0

CCSDS_OMM_VERS = 2.0
CREATION_DATE  = 
ORIGINATOR     = 

OBJECT_NAME    = COSMOS 1844
OBJECT_ID      = 1987-041A
CENTER_NAME    = EARTH
REF_FRAME      = TEME
TIME_SYSTEM    = UTC
MEAN_ELEMENT_THEORY = SGP/SGP4

EPOCH          = 2026-02-17T05:55:09.629472
MEAN_MOTION    = 14.14548742
ECCENTRICITY   = .00290407
INCLINATION    = 70.8980
RA_OF_ASC_NODE = 77.2968
ARG_OF_PERICENTER = 50.5215
MEAN_ANOMALY   = 309.8468

EPHEMERIS_TYPE = 0
CLASSIFICATION_TYPE = U
NORAD_CAT_ID   = 17973
ELEMENT_SET_NO = 999
REV_AT_EPOCH   = 69
BSTAR          = .21402913E-3
MEAN_MOTION_DOT = .364E-5
MEAN_MOTION_DDOT = 0

CCSDS_OMM_VERS = 2.0
CREATION_DATE  = 
ORIGINATOR     = 

OBJECT_NAME    = SL-14 R/B
OBJECT_ID      = 1987-055B
CENTER_NAME    = EARTH
REF_FRAME      = TEME
TIME_SYSTEM    = UTC
MEAN_ELEMENT_THEORY = SGP/SGP4

EPOCH          = 2026-02-17T06:28:27.003936
MEAN_MOTION    = 14.85603099
ECCENTRICITY   = .00223301
INCLINATION    = 82.5010
RA_OF_ASC_NODE = 8.2721
ARG_OF_PERICENTER = 81.5612
MEAN_ANOMALY   = 278.8134

EPHEMERIS_TYPE = 0
CLASSIFICATION_TYPE = U
NORAD_CAT_ID   = 18153
ELEMENT_SET_NO = 999
REV_AT_EPOCH   = 6690
BSTAR          = .64304867E-4
MEAN_MOTION_DOT = .583E-5
MEAN_MOTION_DDOT = 0

CCSDS_OMM_VERS = 2.0
CREATION_DATE  = 
ORIGINATOR     = 

OBJECT_NAME    = COSMOS 1867
OBJECT_ID      = 1987-060A
CENTER_NAME    = EARTH
REF_FRAME      = TEME
TIME_SYSTEM    = UTC
MEAN_ELEMENT_THEORY = SGP/SGP4

EPOCH          = 2026-02-17T06:01:48.542592
MEAN_MOTION    = 14.31499693
ECCENTRICITY   = .00141721
INCLINATION    = 65.0122
RA_OF_ASC_NODE = 3.9400
ARG_OF_PERICENTER = 277.4997
MEAN_ANOMALY   = 82.4477

EPHEMERIS_TYPE = 0
CLASSIFICATION_TYPE = U
NORAD_CAT_ID   = 18187
ELEMENT_SET_NO = 999
REV_AT_EPOCH   = 1701
BSTAR          = .23505308E-4
MEAN_MOTION_DOT = -.38E-6
MEAN_MOTION_DDOT = 0

CCSDS_OMM_VERS = 2.0
CREATION_DATE  = 
ORIGINATOR     = 

OBJECT_NAME    = SL-14 R/B
OBJECT_ID      = 1988-001B
CENTER_NAME    = EARTH
REF_FRAME      = TEME
TIME_SYSTEM    = UTC
MEAN_ELEMENT_THEORY = SGP/SGP4

EPOCH          = 2026-02-16T22:14:38.615712
MEAN_MOTION    = 14.85501686
ECCENTRICITY   = .00168825
INCLINATION    = 82.5116
RA_OF_ASC_NODE = 214.8874
ARG_OF_PERICENTER = 310.2989
MEAN_ANOMALY   = 49.6750

EPHEMERIS_TYPE = 0
CLASSIFICATION_TYPE = U
NORAD_CAT_ID   = 18749
ELEMENT_SET_NO = 999
REV_AT_EPOCH   = 3894
BSTAR          = .65098007E-4
MEAN_MOTION_DOT = .587E-5
MEAN_MOTION_DDOT = 0

